ONEWEB-0641             
1 55805U 23029K   23281.89643254  .00000076  00000+0  15789-3 0  9991
2 55805  87.9153 140.5013 0001917  69.9834 290.1505 13.19723774 29354
ONEWEB-0642             
1 55806U 23029L   23281.89169402 -.00000012  00000+0 -61408-4 0  9992
2 55806  87.9219 140.4790 0002488  52.5401 307.5957 13.19726978 29343
ONEWEB-0643             
1 55807U 23029M   23281.84543493  .00000063  00000+0  13484-3 0  9998
2 55807  87.8968 125.2730 0002100  43.2650 316.8644 13.14497091 30336
ONEWEB-0644             
1 55808U 23029N   23281.88697290  .00000059  00000+0  11441-3 0  9994
2 55808  87.9147 140.4892 0002105  59.8369 300.2972 13.19724979 29343
ONEWEB-0645             
1 55809U 23029P   23281.65555264  .00000098  00000+0  21122-3 0  9994
2 55809  87.9218 140.5215 0002309  71.7524 288.3859 13.19722468 29313
ONEWEB-0646             
1 55810U 23029Q   23281.91303039  .00000032  00000+0  48400-4 0  9993
2 55810  87.9219 140.4736 0001762  67.1835 292.9484 13.19725322 29338
ONEWEB-0648             
1 55811U 23029R   23281.80734619  .00000100  00000+0  23425-3 0  9999
2 55811  87.8970 125.2455 0002712  61.8835 298.2568 13.14506435 30339
ONEWEB-0649             
1 55812U 23029S   23281.87590999  .00000022  00000+0  23622-4 0  9991
2 55812  87.9224 140.4806 0002203  68.2021 291.9346 13.19724437 29369
